[{"OBJECT_NAME":"TIANMU-1 07","OBJECT_ID":"2023-101A","EPOCH":"2026-03-06T13:47:20.454720","MEAN_MOTION":15.29118809,"ECCENTRICITY":0.00046097,"INCLINATION":97.2728,"RA_OF_ASC_NODE":118.5929,"ARG_OF_PERICENTER":142.4105,"MEAN_ANOMALY":217.7458,"EPHEMERIS_TYPE":0,"CLASSIFICATION_TYPE":"U","NORAD_CAT_ID":57399,"ELEMENT_SET_NO":999,"REV_AT_EPOCH":14596,"BSTAR":0.00029794732,"MEAN_MOTION_DOT":8.352e-5,"MEAN_MOTION_DDOT":0},{"OBJECT_NAME":"STARLINK-32754","OBJECT_ID":"2025-004S","EPOCH":"2026-03-09T11:06:41.216256","MEAN_MOTION":15.27589937,"ECCENTRICITY":0.00017795,"INCLINATION":42.9981,"RA_OF_ASC_NODE":221.1752,"ARG_OF_PERICENTER":292.616,"MEAN_ANOMALY":67.4503,"EPHEMERIS_TYPE":0,"CLASSIFICATION_TYPE":"U","NORAD_CAT_ID":62527,"ELEMENT_SET_NO":999,"REV_AT_EPOCH":6547,"BSTAR":0.0011224251,"MEAN_MOTION_DOT":0.00030763,"MEAN_MOTION_DDOT":0}]
